[
    {
        "Altitude(m)": 622205.9042360833,
        "Argument of Periapsis(deg)": 0.0,
        "Eccentricity": 0.0,
        "Inclination(deg)": 60.0,
        "Latitude(deg)": -52.16253683207537,
        "Longitude(deg)": -72.29956312790249,
        "Mean Anomaly(deg)": -114.54550000000005,
        "RAAN(deg)": 160.0,
        "Satellite Name": "Test1 719",
        "Satellite Number": 719,
        "Semi-Major Axis(m)": 6980739.136638005,
        "Time(s)": 0
    },
    {
        "Altitude(m)": 622344.8104917916,
        "Argument of Periapsis(deg)": 0.00010418945913296404,
        "Eccentricity": 0.0,
        "Inclination(deg)": 60.0,
        "Latitude(deg)": -52.52011595830168,
        "Longitude(deg)": -71.51834842040793,
        "Mean Anomaly(deg)": -113.92539385453819,
        "RAAN(deg)": 159.99957995086024,
        "Satellite Name": "Test1 719",
        "Satellite Number": 719,
        "Semi-Major Axis(m)": 6980739.136638005,
        "Time(s)": 10
    },
    {
        "Altitude(m)": 622480.8730831383,
        "Argument of Periapsis(deg)": 0.0002083789182659281,
        "Eccentricity": 0.0,
        "Inclination(deg)": 60.0,
        "Latitude(deg)": -52.871858447247995,
        "Longitude(deg)": -70.7238014958982,
        "Mean Anomaly(deg)": -113.30528770907637,
        "RAAN(deg)": 159.9991599017205,
        "Satellite Name": "Test1 719",
        "Satellite Number": 719,
        "Semi-Major Axis(m)": 6980739.136638005,
        "Time(s)": 20
    },
    {
        "Altitude(m)": 622614.0387789251,
        "Argument of Periapsis(deg)": 0.00031256837739889213,
        "Eccentricity": 0.0,
        "Inclination(deg)": 60.0,
        "Latitude(deg)": -53.21759643674804,
        "Longitude(deg)": -69.9157613862153,
        "Mean Anomaly(deg)": -112.68518156361452,
        "RAAN(deg)": 159.99873985258077,
        "Satellite Name": "Test1 719",
        "Satellite Number": 719,
        "Semi-Major Axis(m)": 6980739.136638005,
        "Time(s)": 30
    },
    {
        "Altitude(m)": 622744.2554581951,
        "Argument of Periapsis(deg)": 0.0004167578365318562,
        "Eccentricity": 0.0,
        "Inclination(deg)": 60.0,
        "Latitude(deg)": -53.557158657725985,
        "Longitude(deg)": -69.09407874667073,
        "Mean Anomaly(deg)": -112.06507541815269,
        "RAAN(deg)": 159.99831980344103,
        "Satellite Name": "Test1 719",
        "Satellite Number": 719,
        "Semi-Major Axis(m)": 6980739.136638005,
        "Time(s)": 40
    },
    {
        "Altitude(m)": 622871.4721324603,
        "Argument of Periapsis(deg)": 0.0005209472956648203,
        "Eccentricity": 0.0,
        "Inclination(deg)": 60.0,
        "Latitude(deg)": -53.89037055696014,
        "Longitude(deg)": -68.25861825257257,
        "Mean Anomaly(deg)": -111.44496927269083,
        "RAAN(deg)": 159.99789975430127,
        "Satellite Name": "Test1 719",
        "Satellite Number": 719,
        "Semi-Major Axis(m)": 6980739.136638005,
        "Time(s)": 50
    },
    {
        "Altitude(m)": 622995.6389674683,
        "Argument of Periapsis(deg)": 0.0006251367547977843,
        "Eccentricity": 0.0,
        "Inclination(deg)": 60.0,
        "Latitude(deg)": -54.21705444383223,
        "Longitude(deg)": -67.40925954648245,
        "Mean Anomaly(deg)": -110.82486312722907,
        "RAAN(deg)": 159.99747970516154,
        "Satellite Name": "Test1 719",
        "Satellite Number": 719,
        "Semi-Major Axis(m)": 6980739.136638005,
        "Time(s)": 60
    },
    {
        "Altitude(m)": 623116.7073044245,
        "Argument of Periapsis(deg)": 0.0007293262139307483,
        "Eccentricity": 0.0,
        "Inclination(deg)": 60.0,
        "Latitude(deg)": -54.5370296626785,
        "Longitude(deg)": -66.54589824471624,
        "Mean Anomaly(deg)": -110.20475698176719,
        "RAAN(deg)": 159.9970596560218,
        "Satellite Name": "Test1 719",
        "Satellite Number": 719,
        "Semi-Major Axis(m)": 6980739.136638005,
        "Time(s)": 70
    },
    {
        "Altitude(m)": 623234.6296807079,
        "Argument of Periapsis(deg)": 0.0008335156730637124,
        "Eccentricity": 0.0,
        "Inclination(deg)": 60.0,
        "Latitude(deg)": -54.85011279231629,
        "Longitude(deg)": -65.66844851032161,
        "Mean Anomaly(deg)": -109.58465083630543,
        "RAAN(deg)": 159.99663960688207,
        "Satellite Name": "Test1 719",
        "Satellite Number": 719,
        "Semi-Major Axis(m)": 6980739.136638005,
        "Time(s)": 80
    },
    {
        "Altitude(m)": 623349.3598500893,
        "Argument of Periapsis(deg)": 0.0009377051321966765,
        "Eccentricity": 0.0,
        "Inclination(deg)": 60.0,
        "Latitude(deg)": -55.15611787425155,
        "Longitude(deg)": -64.7768441597257,
        "Mean Anomaly(deg)": -108.96454469084357,
        "RAAN(deg)": 159.9962195577423,
        "Satellite Name": "Test1 719",
        "Satellite Number": 719,
        "Semi-Major Axis(m)": 6980739.136638005,
        "Time(s)": 90
    },
    {
        "Altitude(m)": 623460.8528023758,
        "Argument of Periapsis(deg)": 0.0010418945913296407,
        "Eccentricity": 0.0,
        "Inclination(deg)": 60.0,
        "Latitude(deg)": -55.45485667097291,
        "Longitude(deg)": -63.8710398073767,
        "Mean Anomaly(deg)": -108.3444385453817,
        "RAAN(deg)": 159.99579950860257,
        "Satellite Name": "Test1 719",
        "Satellite Number": 719,
        "Semi-Major Axis(m)": 6980739.136638005,
        "Time(s)": 100
    },
    {
        "Altitude(m)": 623569.0647825755,
        "Argument of Periapsis(deg)": 0.0011460840504626045,
        "Eccentricity": 0.0,
        "Inclination(deg)": 60.0,
        "Latitude(deg)": -55.746138955609275,
        "Longitude(deg)": -62.95101355109845,
        "Mean Anomaly(deg)": -107.7243323999199,
        "RAAN(deg)": 159.99537945946284,
        "Satellite Name": "Test1 719",
        "Satellite Number": 719,
        "Semi-Major Axis(m)": 6980739.136638005,
        "Time(s)": 110
    },
    {
        "Altitude(m)": 623673.9533094345,
        "Argument of Periapsis(deg)": 0.0012502735095955685,
        "Eccentricity": 0.0,
        "Inclination(deg)": 60.0,
        "Latitude(deg)": -56.029772834052324,
        "Longitude(deg)": -62.016768160573015,
        "Mean Anomaly(deg)": -107.10422625445807,
        "RAAN(deg)": 159.9949594103231,
        "Satellite Name": "Test1 719",
        "Satellite Number": 719,
        "Semi-Major Axis(m)": 6980739.136638005,
        "Time(s)": 120
    },
    {
        "Altitude(m)": 623775.4771935234,
        "Argument of Periapsis(deg)": 0.0013544629687285324,
        "Eccentricity": 0.0,
        "Inclination(deg)": 60.0,
        "Latitude(deg)": -56.30556510044126,
        "Longitude(deg)": -61.068332268273636,
        "Mean Anomaly(deg)": -106.48412010899621,
        "RAAN(deg)": 159.99453936118334,
        "Satellite Name": "Test1 719",
        "Satellite Number": 719,
        "Semi-Major Axis(m)": 6980739.136638005,
        "Time(s)": 130
    },
    {
        "Altitude(m)": 623873.5965546769,
        "Argument of Periapsis(deg)": 0.0014586524278614966,
        "Eccentricity": 0.0,
        "Inclination(deg)": 60.0,
        "Latitude(deg)": -56.57332162665518,
        "Longitude(deg)": -60.105763060418965,
        "Mean Anomaly(deg)": -105.86401396353438,
        "RAAN(deg)": 159.9941193120436,
        "Satellite Name": "Test1 719",
        "Satellite Number": 719,
        "Semi-Major Axis(m)": 6980739.136638005,
        "Time(s)": 140
    },
    {
        "Altitude(m)": 623968.2728389188,
        "Argument of Periapsis(deg)": 0.0015628418869944607,
        "Eccentricity": 0.0,
        "Inclination(deg)": 60.0,
        "Latitude(deg)": -56.83284778616261,
        "Longitude(deg)": -59.1291474251581,
        "Mean Anomaly(deg)": -105.24390781807257,
        "RAAN(deg)": 159.99369926290385,
        "Satellite Name": "Test1 719",
        "Satellite Number": 719,
        "Semi-Major Axis(m)": 6980739.136638005,
        "Time(s)": 150
    },
    {
        "Altitude(m)": 624059.4688348039,
        "Argument of Periapsis(deg)": 0.0016670313461274247,
        "Eccentricity": 0.0,
        "Inclination(deg)": 60.0,
        "Latitude(deg)": -57.083948912240444,
        "Longitude(deg)": -58.13860305214665,
        "Mean Anomaly(deg)": -104.62380167261071,
        "RAAN(deg)": 159.99327921376414,
        "Satellite Name": "Test1 719",
        "Satellite Number": 719,
        "Semi-Major Axis(m)": 6980739.136638005,
        "Time(s)": 160
    },
    {
        "Altitude(m)": 624147.1486891666,
        "Argument of Periapsis(deg)": 0.0017712208052603888,
        "Eccentricity": 0.0,
        "Inclination(deg)": 60.0,
        "Latitude(deg)": -57.32643079019406,
        "Longitude(deg)": -57.13428097610042,
        "Mean Anomaly(deg)": -104.00369552714895,
        "RAAN(deg)": 159.99285916462438,
        "Satellite Name": "Test1 719",
        "Satellite Number": 719,
        "Semi-Major Axis(m)": 6980739.136638005,
        "Time(s)": 170
    },
    {
        "Altitude(m)": 624231.2779223116,
        "Argument of Periapsis(deg)": 0.001875410264393353,
        "Eccentricity": 0.0,
        "Inclination(deg)": 60.0,
        "Latitude(deg)": -57.5601001827813,
        "Longitude(deg)": -56.11636651685814,
        "Mean Anomaly(deg)": -103.38358938168707,
        "RAAN(deg)": 159.99243911548464,
        "Satellite Name": "Test1 719",
        "Satellite Number": 719,
        "Semi-Major Axis(m)": 6980739.136638005,
        "Time(s)": 180
    },
    {
        "Altitude(m)": 624311.8234426036,
        "Argument of Periapsis(deg)": 0.0019795997235263173,
        "Eccentricity": 0.0,
        "Inclination(deg)": 60.0,
        "Latitude(deg)": -57.78476538758044,
        "Longitude(deg)": -55.08508010591624,
        "Mean Anomaly(deg)": -102.76348323622527,
        "RAAN(deg)": 159.99201906634488,
        "Satellite Name": "Test1 719",
        "Satellite Number": 719,
        "Semi-Major Axis(m)": 6980739.136638005,
        "Time(s)": 190
    }
]